{
    "links": {
        "self": "http://www.neowsapp.com/rest/v1/neo/3761199?api_key=iIulBulltgU6a56xZRHN4H3l9WmuAYTsLGpBGhQ2"
    },
    "id": "3761199",
    "neo_reference_id": "3761199",
    "name": "(2016 UH)",
    "designation": "2016 UH",
    "nasa_jpl_url": "http://ssd.jpl.nasa.gov/sbdb.cgi?sstr=3761199",
    "absolute_magnitude_h": 25.3,
    "estimated_diameter": {
        "kilometers": {
            "estimated_diameter_min": 0.0231502122,
            "estimated_diameter_max": 0.0517654482
        },
        "meters": {
            "estimated_diameter_min": 23.150212221,
            "estimated_diameter_max": 51.7654482198
        },
        "miles": {
            "estimated_diameter_min": 0.0143848705,
            "estimated_diameter_max": 0.0321655483
        },
        "feet": {
            "estimated_diameter_min": 75.9521422633,
            "estimated_diameter_max": 169.8341531374
        }
    },
    "is_potentially_hazardous_asteroid": false,
    "close_approach_data": [
        {
            "close_approach_date": "2016-10-26",
            "close_approach_date_full": "2016-Oct-26 21:12",
            "epoch_date_close_approach": 1477516320000,
            "relative_velocity": {
                "kilometers_per_second": "8.4642273408",
                "kilometers_per_hour": "30471.2184269047",
                "miles_per_hour": "18933.6301386508"
            },
            "miss_distance": {
                "astronomical": "0.0513135006",
                "lunar": "19.9609517334",
                "kilometers": "7676390.392003722",
                "miles": "4769887.8069544836"
            },
            "orbiting_body": "Earth"
        },
        {
            "close_approach_date": "2018-12-08",
            "close_approach_date_full": "2018-Dec-08 04:31",
            "epoch_date_close_approach": 1544243460000,
            "relative_velocity": {
                "kilometers_per_second": "4.2100507299",
                "kilometers_per_hour": "15156.1826277188",
                "miles_per_hour": "9417.4624777623"
            },
            "miss_distance": {
                "astronomical": "1.6296730098",
                "lunar": "633.9428008122",
                "kilometers": "243795611.062569126",
                "miles": "151487568.1424048988"
            },
            "orbiting_body": "Juptr"
        }
    ],
    "orbital_data": {
        "orbit_id": "7",
        "orbit_determination_date": "2017-04-06 08:22:56",
        "first_observation_date": "2016-10-19",
        "last_observation_date": "2016-10-31",
        "data_arc_in_days": 12,
        "observations_used": 36,
        "orbit_uncertainty": "8",
        "minimum_orbit_intersection": ".0357808",
        "jupiter_tisserand_invariant": "3.160",
        "epoch_osculation": "2457685.5",
        "eccentricity": ".5984691490041778",
        "semi_major_axis": "2.545538500034952",
        "inclination": "5.130875583144036",
        "ascending_node_longitude": "216.2164358196833",
        "orbital_period": "1483.432985579122",
        "perihelion_distance": "1.022112240161663",
        "perihelion_argument": "194.7150429343471",
        "aphelion_distance": "4.068964759908241",
        "perihelion_time": "2457701.506647125347",
        "mean_anomaly": "356.1155016632751",
        "mean_motion": ".2426803256363202",
        "equinox": "J2000",
        "orbit_class": {
            "orbit_class_type": "AMO",
            "orbit_class_description": "Near-Earth asteroid orbits similar to that of 1221 Amor",
            "orbit_class_range": "1.017 AU < q (perihelion) < 1.3 AU"
        }
    },
    "is_sentry_object": false
}